{
  "norad_id": 48787,
  "name": "ONEWEB-0210",
  "history": [
    {
      "epoch": "2026-04-11T18:05:47.071392Z",
      "apogee_km": 1203.7999836372246,
      "perigee_km": 1199.755341173366,
      "latitude_deg": 3.100321762105461e-06,
      "longitude_deg": 161.01949779055627,
      "height_km": 1205.0714370416476,
      "semi_major_axis_km": 7579.9146624052955,
      "eccentricity": 0.0002668,
      "inclination_deg": 87.8943,
      "raan_deg": 272.4346,
      "arg_perigee_deg": 101.4913,
      "mean_anomaly_deg": 258.6517,
      "mean_motion_rev_day": 13.15546755
    },
    {
      "epoch": "2026-04-13T04:46:42.831840Z",
      "apogee_km": 1203.812794452404,
      "perigee_km": 1199.7387429374858,
      "latitude_deg": -2.1456854181181813e-05,
      "longitude_deg": -0.9260846051745762,
      "height_km": 1205.0357516611602,
      "semi_major_axis_km": 7579.912768694944,
      "eccentricity": 0.00026874,
      "inclination_deg": 87.8943,
      "raan_deg": 272.1457,
      "arg_perigee_deg": 100.4408,
      "mean_anomaly_deg": 259.7025,
      "mean_motion_rev_day": 13.15547248
    },
    {
      "epoch": "2026-04-14T17:17:09.985344Z",
      "apogee_km": 1203.8187396132244,
      "perigee_km": 1199.7331665315187,
      "latitude_deg": -2.801240142340009e-05,
      "longitude_deg": 169.65746561326992,
      "height_km": 1204.9900883583375,
      "semi_major_axis_km": 7579.912953072371,
      "eccentricity": 0.0002695,
      "inclination_deg": 87.8947,
      "raan_deg": 271.8417,
      "arg_perigee_deg": 99.1073,
      "mean_anomaly_deg": 261.0362,
      "mean_motion_rev_day": 13.155472
    },
    {
      "epoch": "2026-04-15T11:32:23.620416Z",
      "apogee_km": 1203.804584698688,
      "perigee_km": 1199.7496338467918,
      "latitude_deg": -5.3441385814258354e-05,
      "longitude_deg": -105.05130314770095,
      "height_km": 1204.9654769698798,
      "semi_major_axis_km": 7579.91410927274,
      "eccentricity": 0.00026748,
      "inclination_deg": 87.8947,
      "raan_deg": 271.6894,
      "arg_perigee_deg": 98.439,
      "mean_anomaly_deg": 261.7043,
      "mean_motion_rev_day": 13.15546899
    },
    {
      "epoch": "2026-04-16T16:44:45.377088Z",
      "apogee_km": 1203.814674088304,
      "perigee_km": 1199.7351654930726,
      "latitude_deg": -1.1158022688217753e-05,
      "longitude_deg": 175.41579837074826,
      "height_km": 1204.9293786646651,
      "semi_major_axis_km": 7579.911919790688,
      "eccentricity": 0.0002691,
      "inclination_deg": 87.895,
      "raan_deg": 271.4466,
      "arg_perigee_deg": 97.4277,
      "mean_anomaly_deg": 262.7159,
      "mean_motion_rev_day": 13.15547469
    },
    {
      "epoch": "2026-04-17T21:57:07.203744Z",
      "apogee_km": 1203.8121947253048,
      "perigee_km": 1199.7375373026098,
      "latitude_deg": 6.556835732637776e-05,
      "longitude_deg": 95.88240802129445,
      "height_km": 1204.8960130781677,
      "semi_major_axis_km": 7579.911866013957,
      "eccentricity": 0.00026878,
      "inclination_deg": 87.8952,
      "raan_deg": 271.2036,
      "arg_perigee_deg": 96.4934,
      "mean_anomaly_deg": 263.6503,
      "mean_motion_rev_day": 13.15547483
    },
    {
      "epoch": "2026-04-18T18:01:52.098816Z",
      "apogee_km": 1203.8317921914204,
      "perigee_km": 1199.7128694610483,
      "latitude_deg": 2.877691353964366e-06,
      "longitude_deg": 153.70362214512224,
      "height_km": 1204.8776180738803,
      "semi_major_axis_km": 7579.909330826234,
      "eccentricity": 0.0002717,
      "inclination_deg": 87.8954,
      "raan_deg": 271.0365,
      "arg_perigee_deg": 95.9809,
      "mean_anomaly_deg": 264.1631,
      "mean_motion_rev_day": 13.15548143
    },
    {
      "epoch": "2026-04-19T19:35:11.266368Z",
      "apogee_km": 1203.8310420761463,
      "perigee_km": 1199.7242443224613,
      "latitude_deg": 5.35868190181319e-05,
      "longitude_deg": 129.1114382945423,
      "height_km": 1204.8541702607758,
      "semi_major_axis_km": 7579.914643199303,
      "eccentricity": 0.0002709,
      "inclination_deg": 87.8949,
      "raan_deg": 270.8237,
      "arg_perigee_deg": 95.1926,
      "mean_anomaly_deg": 264.9514,
      "mean_motion_rev_day": 13.1554676
    },
    {
      "epoch": "2026-04-20T10:11:22.155936Z",
      "apogee_km": 1203.788586268488,
      "perigee_km": 1199.7810815948887,
      "latitude_deg": -4.581924941455979e-05,
      "longitude_deg": -90.65546463271511,
      "height_km": 1204.8181009850477,
      "semi_major_axis_km": 7579.9218339316885,
      "eccentricity": 0.00026435,
      "inclination_deg": 87.8947,
      "raan_deg": 270.7019,
      "arg_perigee_deg": 94.077,
      "mean_anomaly_deg": 266.0662,
      "mean_motion_rev_day": 13.15544888
    },
    {
      "epoch": "2026-04-21T17:13:15.112992Z",
      "apogee_km": 1203.800183884562,
      "perigee_km": 1199.749479001839,
      "latitude_deg": 9.476211587445704e-07,
      "longitude_deg": 162.34116615905234,
      "height_km": 1204.780401370193,
      "semi_major_axis_km": 7579.911831443201,
      "eccentricity": 0.0002672,
      "inclination_deg": 87.8949,
      "raan_deg": 270.4436,
      "arg_perigee_deg": 93.2502,
      "mean_anomaly_deg": 266.8934,
      "mean_motion_rev_day": 13.15547492
    },
    {
      "epoch": "2026-04-22T11:28:28.658208Z",
      "apogee_km": 1203.8096856699367,
      "perigee_km": 1199.7400309931982,
      "latitude_deg": 4.0816307756362024e-05,
      "longitude_deg": -112.36682807495622,
      "height_km": 1204.7577482181289,
      "semi_major_axis_km": 7579.911858331567,
      "eccentricity": 0.00026845,
      "inclination_deg": 87.8952,
      "raan_deg": 270.2917,
      "arg_perigee_deg": 92.5966,
      "mean_anomaly_deg": 267.5472,
      "mean_motion_rev_day": 13.15547485
    },
    {
      "epoch": "2026-04-23T09:22:44.933376Z",
      "apogee_km": 1203.8277069891074,
      "perigee_km": 1199.7225781709285,
      "latitude_deg": 6.123367779772054e-05,
      "longitude_deg": -82.0165291983072,
      "height_km": 1204.73871172771,
      "semi_major_axis_km": 7579.912142580018,
      "eccentricity": 0.00027079,
      "inclination_deg": 87.8956,
      "raan_deg": 270.1094,
      "arg_perigee_deg": 92.0358,
      "mean_anomaly_deg": 268.1083,
      "mean_motion_rev_day": 13.15547411
    },
    {
      "epoch": "2026-04-24T20:03:40.718016Z",
      "apogee_km": 1203.7921736443895,
      "perigee_km": 1199.7566288143753,
      "latitude_deg": 7.212404483594659e-05,
      "longitude_deg": 116.0379875654171,
      "height_km": 1204.695135958042,
      "semi_major_axis_km": 7579.911401229382,
      "eccentricity": 0.0002662,
      "inclination_deg": 87.8959,
      "raan_deg": 269.8207,
      "arg_perigee_deg": 90.852,
      "mean_anomaly_deg": 269.2916,
      "mean_motion_rev_day": 13.15547604
    },
    {
      "epoch": "2026-04-25T19:47:28.394880Z",
      "apogee_km": 1203.7856870717587,
      "perigee_km": 1199.7622703242669,
      "latitude_deg": 6.120682375779494e-05,
      "longitude_deg": 118.91738058626433,
      "height_km": 1204.6621902439626,
      "semi_major_axis_km": 7579.9109786980125,
      "eccentricity": 0.0002654,
      "inclination_deg": 87.8961,
      "raan_deg": 269.6233,
      "arg_perigee_deg": 89.9279,
      "mean_anomaly_deg": 270.2156,
      "mean_motion_rev_day": 13.15547714
    },
    {
      "epoch": "2026-04-26T21:20:47.434560Z",
      "apogee_km": 1203.7793510529818,
      "perigee_km": 1199.7676076326852,
      "latitude_deg": 5.448434022029076e-05,
      "longitude_deg": 94.32593040636,
      "height_km": 1204.6304299026972,
      "semi_major_axis_km": 7579.910479342833,
      "eccentricity": 0.00026463,
      "inclination_deg": 87.8961,
      "raan_deg": 269.4107,
      "arg_perigee_deg": 89.0344,
      "mean_anomaly_deg": 271.109,
      "mean_motion_rev_day": 13.15547844
    },
    {
      "epoch": "2026-04-27T19:15:03.751200Z",
      "apogee_km": 1203.7847726250948,
      "perigee_km": 1199.761356362862,
      "latitude_deg": -2.657813316756044e-05,
      "longitude_deg": 124.67605498393334,
      "height_km": 1204.6088170790536,
      "semi_major_axis_km": 7579.910064493978,
      "eccentricity": 0.0002654,
      "inclination_deg": 87.8962,
      "raan_deg": 269.2284,
      "arg_perigee_deg": 88.4334,
      "mean_anomaly_deg": 271.71,
      "mean_motion_rev_day": 13.15547952
    }
  ]
}